QIANFAN-17              
1 60395U 24140S   25340.95682601  .00000123  00000+0  17127-3 0  9991
2 60395  88.9764 300.0322 0013402 217.8564 142.1645 13.50975678 67355
QIANFAN-18              
1 60396U 24140T   25340.93624418  .00000125  00000+0  17568-3 0  9993
2 60396  88.9757 299.5683 0013179 198.5967 161.4704 13.50975727 66740
QIANFAN-19              
1 61552U 24185A   25340.92470190  .00000864  00000+0  44542-3 0  9994
2 61552  88.9822  78.6065 0005668 339.1327  20.9627 14.14286855 68849
QIANFAN-20              
1 61553U 24185B   25340.93477003  .00000968  00000+0  55316-3 0  9992
2 61553  88.9820  78.9233 0006044  24.3758 335.7711 14.08833475 68679
QIANFAN-21              
1 61554U 24185C   25340.84216543  .00001215  00000+0  53733-3 0  9990
2 61554  88.9737  77.6692 0011302  33.3730 326.8171 14.22595710 69131
QIANFAN-22              
1 61555U 24185D   25340.87111263  .00000321  00000+0  26670-3 0  9994
2 61555  88.9804  79.8881 0006957  30.7074 329.4503 13.86299522 68120
QIANFAN-23              
1 61556U 24185E   25340.90828894  .00000851  00000+0  42241-3 0  9994
2 61556  88.9814  78.4208 0006791 350.7159   9.3903 14.16283796 68921
QIANFAN-24              
1 61557U 24185F   25340.92008796  .00001199  00000+0  51836-3 0  9994
2 61557  88.9796  77.8340 0007917 327.2980  32.7721 14.23798022 69192
